[{"OBJECT_NAME":"STARLINK-1267","OBJECT_ID":"2020-019AA","EPOCH":"2026-03-09T10:13:57.669888","MEAN_MOTION":15.49705648,"ECCENTRICITY":0.00026991,"INCLINATION":53.0515,"RA_OF_ASC_NODE":128.2688,"ARG_OF_PERICENTER":271.1817,"MEAN_ANOMALY":88.8882,"EPHEMERIS_TYPE":0,"CLASSIFICATION_TYPE":"U","NORAD_CAT_ID":45384,"ELEMENT_SET_NO":999,"REV_AT_EPOCH":33024,"BSTAR":0.0017135901,"MEAN_MOTION_DOT":0.00097422,"MEAN_MOTION_DDOT":0},{"OBJECT_NAME":"STARLINK-1888","OBJECT_ID":"2020-088BB","EPOCH":"2026-03-09T21:33:21.537216","MEAN_MOTION":15.48275914,"ECCENTRICITY":0.00048731,"INCLINATION":53.0534,"RA_OF_ASC_NODE":278.4893,"ARG_OF_PERICENTER":159.2034,"MEAN_ANOMALY":200.9172,"EPHEMERIS_TYPE":0,"CLASSIFICATION_TYPE":"U","NORAD_CAT_ID":47171,"ELEMENT_SET_NO":999,"REV_AT_EPOCH":29218,"BSTAR":0.0014211074,"MEAN_MOTION_DOT":0.00076565,"MEAN_MOTION_DDOT":0}]
